{
  "type": "FeatureCollection",
  "features": [
    {
      "type": "Feature",
      "geometry": {
        "type": "Polygon",
        "coordinates": [
          [
            [
              499855.0038186642,
              7000300.0
            ],
            [
              499817.3009200678,
              7000417.300920068
            ],
            [
              499700.0,
              7000461.02742761
            ],
            [
              499601.7062971972,
              7000398.293702803
            ],
            [
              499557.99334860354,
              7000300.0
            ],
            [
              499583.36829584703,
              7000183.368295847
            ],
            [
              499700.0,
              7000169.7893878175
            ],
            [
              499815.1517288959,
              7000184.8482711045
            ],
            [
              499855.0038186642,
              7000300.0
            ]
          ]
        ]
      },
      "properties": {
        "name": "Target monitoring area"
      }
    }
  ]
}